KUZGTU 1 (RS47S)        
1 57217U 23091AV  26197.85339441  .00006764  00000+0  23176-3 0  9993
2 57217  97.5047 262.6464 0009905   0.3148 359.8097 15.30492488168915
SONATE-2                
1 59112U 24043Q   26197.39148124  .00025973  00000+0  31139-3 0  9993
2 59112  97.5560 349.6331 0006825 102.5027 257.6993 15.60890345132445
MESAT1                  
1 60209U 24125G   26197.58487029  .00048257  00000+0  46032-3 0  9992
2 60209  97.2240  55.8043 0010859 107.8886 252.3560 15.66565453114161
OOV-CUBE (TUBSAT-30)    
1 60240U 24128F   26197.79734005  .00000932  00000+0  83798-4 0  9991
2 60240  61.9939 122.3151 0040918 140.3811 220.0282 15.02877570110567
COLIBRI-S (RS67S)       
1 61746U 24199M   26197.85534578  .00013611  00000+0  25369-3 0  9998
2 61746  97.2941  71.9987 0009182 156.4940 203.6733 15.48895843142004
HORS 3 (RS81S)          
1 61753U 24199U   26197.80044946  .00024860  00000+0  34516-3 0  9998
2 61753  97.2925  74.2687 0007300 151.2664 208.8995 15.56987733142166
HORS 4 (RS82S)          
1 61754U 24199V   26197.85650204  .00033959  00000+0  38179-3 0  9992
2 61754  97.2866  75.7360 0007187 143.6498 216.5250 15.62504277142275
SIT-2086                
1 61764U 24199AF  26197.81469020  .00025741  00000+0  38286-3 0  9992
2 61764  97.2881  74.6568 0008388 139.7051 220.4827 15.55098046139034
HYPERVIEW 1G (RS66S)    
1 61772U 24199AP  26197.69268608  .00174537  00000+0  70457-3 0  9990
2 61772  97.2780  79.1037 0008363 144.9854 215.1968 15.85853998139332
ALTAIR (RS65S)          
1 61779U 24199AW  26197.79391120  .00006839  00000+0  18757-3 0  9998
2 61779  97.2986  66.9543 0012213 190.4645 169.6348 15.37528452141661
ASRTU-1 (AO-123)        
1 61781U 24199AY  26197.87406766  .00004343  00000+0  12562-3 0  9999
2 61781  97.2957  66.2793 0013191 194.4064 165.6806 15.36068524138486
SAMSAT-IONOSPHERE (RS7*)
1 61784U 24199BB  26197.84268257  .00032853  00000+0  40269-3 0  9992
2 61784  97.2889  74.4781 0009414 155.0235 205.1480 15.60234816142183
RTU MIREA 1 (RS51S)     
1 61785U 24199BC  26197.85869897  .00041786  00000+0  43481-3 0  9995
2 61785  97.2874  75.4946 0009493 150.2018 209.9783 15.64422636139104
TEVEL2-4                
1 63213U 25052D   26197.64505216  .00011421  00000+0  33216-3 0  9999
2 63213  97.3866  94.1007 0003431  49.3521 310.8020 15.35600298 74635
TEVEL2-5                
1 63214U 25052E   26197.66900194  .00011058  00000+0  32363-3 0  9994
2 63214  97.3862  94.0641 0003463  50.3372 309.8177 15.35411833 74632
TEVEL2-6                
1 63215U 25052F   26197.68200909  .00010715  00000+0  31404-3 0  9998
2 63215  97.3866  94.0622 0003510  52.4001 307.7561 15.35376184 74634
TEVEL2-1                
1 63217U 25052H   26197.65645366  .00010686  00000+0  31887-3 0  9999
2 63217  97.3837  93.6246 0004184  57.2220 302.9426 15.34805085 74616
TEVEL2-3                
1 63218U 25052J   26197.64995370  .00010581  00000+0  31516-3 0  9995
2 63218  97.3844  93.6442 0003877  59.4044 300.7581 15.34867689 74615
TEVEL2-2                
1 63219U 25052K   26197.65657067  .00010793  00000+0  32192-3 0  9991
2 63219  97.3836  93.6278 0004198  57.6061 302.5588 15.34816209 74619
OTP-2                   
1 63235U 25052AB  26197.63886863  .00003806  00000+0  15834-3 0  9996
2 63235  97.3829  89.6315 0008122  67.1870 293.0224 15.24348189 74359
TEVEL2-9                
1 63237U 25052AD  26197.67279632  .00010133  00000+0  32238-3 0  9990
2 63237  97.3899  92.9536 0007557  53.0535 307.1398 15.32762164 74545
TEVEL2-7                
1 63238U 25052AE  26197.65428594  .00009503  00000+0  30552-3 0  9998
2 63238  97.3900  92.8381 0007627  52.6624 307.5312 15.32443785 74532
TEVEL2-8                
1 63239U 25052AF  26197.66282234  .00009609  00000+0  30904-3 0  9997
2 63239  97.3904  92.8233 0007711  54.0583 306.1374 15.32429153 74533
INNOSAT 16 (RS92S7)     
1 64878U 25155C   26197.84533618  .00003183  00000+0  12740-3 0  9995
2 64878  97.4586 164.8882 0012462  83.4337 276.8319 15.25749121 85190
GEOSCAN 6 (RS92S6)      
1 64879U 25155D   26197.86564123  .00005963  00000+0  20347-3 0  9993
2 64879  97.4577 166.5471 0009930  77.4826 282.7525 15.30674734 85307
GEOSCAN 1 (RS92S1)      
1 64880U 25155E   26197.85598660  .00006457  00000+0  21576-3 0  9991
2 64880  97.4573 166.7123 0009850  77.6577 282.5766 15.31324103 85316
239ALFEROV (RS61S)      
1 64881U 25155F   26197.84668557  .00008883  00000+0  27468-3 0  9995
2 64881  97.4572 167.3680 0009555  77.6041 282.6271 15.33699701 85356
GEOSCAN 2 (RS92S2)      
1 64890U 25155Q   26197.84458080  .00006346  00000+0  21047-3 0  9992
2 64890  97.4572 166.8647 0008970  68.0677 292.1516 15.31581372 85329
GEOSCAN 5 (RS92S5)      
1 64891U 25155R   26197.89490566  .00008194  00000+0  25122-3 0  9994
2 64891  97.4565 167.5653 0008591  81.9728 278.2489 15.34005009 85377
GEOSCAN 4 (RS92S4)      
1 64892U 25155S   26197.87598281  .00008905  00000+0  27136-3 0  9993
2 64892  97.4569 167.6036 0008522  82.4054 277.8156 15.34173433 85373
