OBJECT_NAME,OBJECT_ID,EPOCH,MEAN_MOTION,ECCENTRICITY,INCLINATION,RA_OF_ASC_NODE,ARG_OF_PERICENTER,MEAN_ANOMALY,EPHEMERIS_TYPE,CLASSIFICATION_TYPE,NORAD_CAT_ID,ELEMENT_SET_NO,REV_AT_EPOCH,BSTAR,MEAN_MOTION_DOT,MEAN_MOTION_DDOT
KUZGTU 1 (RS47S),2023-091AV,2026-07-16T20:28:53.277024,15.30492488,.0009905,97.5047,262.6464,0.3148,359.8097,0,U,57217,999,16891,.23176E-3,.6764E-4,0
SONATE-2,2024-043Q,2026-07-16T09:23:43.979136,15.60890345,.0006825,97.5560,349.6331,102.5027,257.6993,0,U,59112,999,13244,.31139E-3,.25973E-3,0
MESAT1,2024-125G,2026-07-16T14:02:12.793056,15.66565453,.0010859,97.2240,55.8043,107.8886,252.3560,0,U,60209,999,11416,.46032E-3,.48257E-3,0
OOV-CUBE (TUBSAT-30),2024-128F,2026-07-16T19:08:10.180320,15.02877570,.0040918,61.9939,122.3151,140.3811,220.0282,0,U,60240,999,11056,.83798E-4,.932E-5,0
COLIBRI-S (RS67S),2024-199M,2026-07-16T20:31:41.875392,15.48895843,.0009182,97.2941,71.9987,156.4940,203.6733,0,U,61746,999,14200,.25369E-3,.13611E-3,0
HORS 3 (RS81S),2024-199U,2026-07-16T19:12:38.833344,15.56987733,.00073,97.2925,74.2687,151.2664,208.8995,0,U,61753,999,14216,.34516E-3,.2486E-3,0
HORS 4 (RS82S),2024-199V,2026-07-16T20:33:21.776256,15.62504277,.0007187,97.2866,75.7360,143.6498,216.5250,0,U,61754,999,14227,.38179E-3,.33959E-3,0
SIT-2086,2024-199AF,2026-07-16T19:33:09.233280,15.55098046,.0008388,97.2881,74.6568,139.7051,220.4827,0,U,61764,999,13903,.38286E-3,.25741E-3,0
HYPERVIEW 1G (RS66S),2024-199AP,2026-07-16T16:37:28.077312,15.85853998,.0008363,97.2780,79.1037,144.9854,215.1968,0,U,61772,999,13933,.70457E-3,.174537E-2,0
ALTAIR (RS65S),2024-199AW,2026-07-16T19:03:13.927680,15.37528452,.0012213,97.2986,66.9543,190.4645,169.6348,0,U,61779,999,14166,.18757E-3,.6839E-4,0
ASRTU-1 (AO-123),2024-199AY,2026-07-16T20:58:39.445824,15.36068524,.0013191,97.2957,66.2793,194.4064,165.6806,0,U,61781,999,13848,.12562E-3,.4343E-4,0
SAMSAT-IONOSPHERE (RS75S),2024-199BB,2026-07-16T20:13:27.774048,15.60234816,.0009414,97.2889,74.4781,155.0235,205.1480,0,U,61784,999,14218,.40269E-3,.32853E-3,0
RTU MIREA 1 (RS51S),2024-199BC,2026-07-16T20:36:31.591008,15.64422636,.0009493,97.2874,75.4946,150.2018,209.9783,0,U,61785,999,13910,.43481E-3,.41786E-3,0
TEVEL2-4,2025-052D,2026-07-16T15:28:52.506624,15.35600298,.0003431,97.3866,94.1007,49.3521,310.8020,0,U,63213,999,7463,.33216E-3,.11421E-3,0
TEVEL2-5,2025-052E,2026-07-16T16:03:21.767616,15.35411833,.0003463,97.3862,94.0641,50.3372,309.8177,0,U,63214,999,7463,.32363E-3,.11058E-3,0
TEVEL2-6,2025-052F,2026-07-16T16:22:05.585376,15.35376184,.000351,97.3866,94.0622,52.4001,307.7561,0,U,63215,999,7463,.31404E-3,.10715E-3,0
TEVEL2-1,2025-052H,2026-07-16T15:45:17.596224,15.34805085,.0004184,97.3837,93.6246,57.2220,302.9426,0,U,63217,999,7461,.31887E-3,.10686E-3,0
TEVEL2-3,2025-052J,2026-07-16T15:35:55.999680,15.34867689,.0003877,97.3844,93.6442,59.4044,300.7581,0,U,63218,999,7461,.31516E-3,.10581E-3,0
TEVEL2-2,2025-052K,2026-07-16T15:45:27.705888,15.34816209,.0004198,97.3836,93.6278,57.6061,302.5588,0,U,63219,999,7461,.32192E-3,.10793E-3,0
OTP-2,2025-052AB,2026-07-16T15:19:58.249632,15.24348189,.0008122,97.3829,89.6315,67.1870,293.0224,0,U,63235,999,7435,.15834E-3,.3806E-4,0
TEVEL2-9,2025-052AD,2026-07-16T16:08:49.602048,15.32762164,.0007557,97.3899,92.9536,53.0535,307.1398,0,U,63237,999,7454,.32238E-3,.10133E-3,0
TEVEL2-7,2025-052AE,2026-07-16T15:42:10.305216,15.32443785,.0007627,97.3900,92.8381,52.6624,307.5312,0,U,63238,999,7453,.30552E-3,.9503E-4,0
TEVEL2-8,2025-052AF,2026-07-16T15:54:27.850176,15.32429153,.0007711,97.3904,92.8233,54.0583,306.1374,0,U,63239,999,7453,.30904E-3,.9609E-4,0
INNOSAT 16 (RS92S7),2025-155C,2026-07-16T20:17:17.045952,15.25749121,.0012462,97.4586,164.8882,83.4337,276.8319,0,U,64878,999,8519,.1274E-3,.3183E-4,0
GEOSCAN 6 (RS92S6),2025-155D,2026-07-16T20:46:31.402272,15.30674734,.000993,97.4577,166.5471,77.4826,282.7525,0,U,64879,999,8530,.20347E-3,.5963E-4,0
GEOSCAN 1 (RS92S1),2025-155E,2026-07-16T20:32:37.242240,15.31324103,.000985,97.4573,166.7123,77.6577,282.5766,0,U,64880,999,8531,.21576E-3,.6457E-4,0
239ALFEROV (RS61S),2025-155F,2026-07-16T20:19:13.633248,15.33699701,.0009555,97.4572,167.3680,77.6041,282.6271,0,U,64881,999,8535,.27468E-3,.8883E-4,0
GEOSCAN 2 (RS92S2),2025-155Q,2026-07-16T20:16:11.781120,15.31581372,.000897,97.4572,166.8647,68.0677,292.1516,0,U,64890,999,8532,.21047E-3,.6346E-4,0
GEOSCAN 5 (RS92S5),2025-155R,2026-07-16T21:28:39.849024,15.34005009,.0008591,97.4565,167.5653,81.9728,278.2489,0,U,64891,999,8537,.25122E-3,.8194E-4,0
GEOSCAN 4 (RS92S4),2025-155S,2026-07-16T21:01:24.914784,15.34173433,.0008522,97.4569,167.6036,82.4054,277.8156,0,U,64892,999,8537,.27136E-3,.8905E-4,0
